start=new Date('2023-01-05T00:00:00.000Z').valueOf();
sats=[{"PERIOD":"95.436","MEAN_MOTION_DOT":"0.00003193","EPHEMERIS_TYPE":"0","BSTAR":"0.00021854000000","MEAN_ANOMALY":"322.4970","ELEMENT_SET_NO":"999","NORAD_CAT_ID":"53713","DECAY_DATE":null,"CLASSIFICATION_TYPE":"U","RCS_SIZE":"LARGE","APOAPSIS":"541.373","TLE_LINE1":"1 53713U 22107P   23004.85510820  .00003193  00000-0  21854-3 0  9998","OBJECT_TYPE":"PAYLOAD","SEMIMAJOR_AXIS":"6917.827","ARG_OF_PERICENTER":"37.6191","OBJECT_NAME":"STARLINK-4698","ECCENTRICITY":"0.00024300","LAUNCH_DATE":"2022-09-05","EPOCH":"2023-01-04T20:31:21.348480","INCLINATION":"53.2201","MEAN_ELEMENT_THEORY":"SGP4","TIME_SYSTEM":"UTC","OBJECT_ID":"2022-107P","PERIAPSIS":"538.011","MEAN_MOTION":"15.08857577","MEAN_MOTION_DDOT":"0.0000000000000","FILE":"3732075","SITE":"AFETR","TLE_LINE2":"2 53713  53.2201  60.4116 0002430  37.6191 322.4970 15.08857577 18872","GP_ID":"222194560","CENTER_NAME":"EARTH","REF_FRAME":"TEME","REV_AT_EPOCH":"1887","RA_OF_ASC_NODE":"60.4116","COUNTRY_CODE":"US"},{"TLE_LINE2":"2 53714  53.2172  36.6021 0001601  47.6701 220.4693 15.19252543 19196","SITE":"AFETR","CENTER_NAME":"EARTH","GP_ID":"222134945","REV_AT_EPOCH":"1919","RA_OF_ASC_NODE":"36.6021","REF_FRAME":"TEME","COUNTRY_CODE":"US","TIME_SYSTEM":"UTC","LAUNCH_DATE":"2022-09-05","EPOCH":"2023-01-04T16:00:00.999936","INCLINATION":"53.2172","MEAN_ELEMENT_THEORY":"SGP4","PERIAPSIS":"506.998","OBJECT_ID":"2022-107Q","MEAN_MOTION_DDOT":"0.0000000000000","FILE":"3731726","MEAN_MOTION":"15.19252543","RCS_SIZE":"LARGE","TLE_LINE1":"1 53714U 22107Q   23004.66667824 -.01151187  00000-0 -58518-1 0  9990","APOAPSIS":"509.203","SEMIMAJOR_AXIS":"6886.235","ARG_OF_PERICENTER":"47.6701","OBJECT_TYPE":"PAYLOAD","OBJECT_NAME":"STARLINK-4688","ECCENTRICITY":"0.00016010","MEAN_MOTION_DOT":"-0.01151187","PERIOD":"94.783","MEAN_ANOMALY":"220.4693","BSTAR":"-0.05851800000000","EPHEMERIS_TYPE":"0","NORAD_CAT_ID":"53714","ELEMENT_SET_NO":"999","CLASSIFICATION_TYPE":"U","DECAY_DATE":null},{"TIME_SYSTEM":"UTC","LAUNCH_DATE":"2022-09-05","INCLINATION":"53.2176","EPOCH":"2023-01-04T11:14:57.946272","MEAN_ELEMENT_THEORY":"SGP4","FILE":"3731823","MEAN_MOTION_DDOT":"0.0000000000000","MEAN_MOTION":"15.08852863","PERIAPSIS":"537.956","OBJECT_ID":"2022-107R","GP_ID":"222162190","CENTER_NAME":"EARTH","SITE":"AFETR","TLE_LINE2":"2 53715  53.2176  62.2619 0002530  29.3761 330.7373 15.08852863 19261","COUNTRY_CODE":"US","REF_FRAME":"TEME","REV_AT_EPOCH":"1926","RA_OF_ASC_NODE":"62.2619","MEAN_ANOMALY":"330.7373","EPHEMERIS_TYPE":"0","BSTAR":"0.00051571000000","MEAN_MOTION_DOT":"0.00007932","PERIOD":"95.437","DECAY_DATE":null,"CLASSIFICATION_TYPE":"U","ELEMENT_SET_NO":"999","NORAD_CAT_ID":"53715","APOAPSIS":"541.456","TLE_LINE1":"1 53715U 22107R   23004.46872623  .00007932  00000-0  51571-3 0  9993","RCS_SIZE":"LARGE","ECCENTRICITY":"0.00025300","OBJECT_NAME":"STARLINK-4686","SEMIMAJOR_AXIS":"6917.841","ARG_OF_PERICENTER":"29.3761","OBJECT_TYPE":"PAYLOAD"},{"OBJECT_ID":"2022-107S","PERIAPSIS":"538.490","MEAN_MOTION":"15.08860897","MEAN_MOTION_DDOT":"0.0000000000000","FILE":"3732075","INCLINATION":"53.2189","LAUNCH_DATE":"2022-09-05","MEAN_ELEMENT_THEORY":"SGP4","EPOCH":"2023-01-04T20:41:58.204608","TIME_SYSTEM":"UTC","RA_OF_ASC_NODE":"60.4574","REV_AT_EPOCH":"1886","REF_FRAME":"TEME","COUNTRY_CODE":"US","TLE_LINE2":"2 53716  53.2189  60.4574 0001722  53.9213 306.1939 15.08860897 18869","SITE":"AFETR","CENTER_NAME":"EARTH","GP_ID":"222194569","NORAD_CAT_ID":"53716","ELEMENT_SET_NO":"999","CLASSIFICATION_TYPE":"U","DECAY_DATE":null,"PERIOD":"95.436","MEAN_MOTION_DOT":"0.00010390","BSTAR":"0.00066957000000","EPHEMERIS_TYPE":"0","MEAN_ANOMALY":"306.1939","OBJECT_TYPE":"PAYLOAD","SEMIMAJOR_AXIS":"6917.817","ARG_OF_PERICENTER":"53.9213","OBJECT_NAME":"STARLINK-4699","ECCENTRICITY":"0.00017220","RCS_SIZE":"LARGE","TLE_LINE1":"1 53716U 22107S   23004.86247922  .00010390  00000-0  66957-3 0  9992","APOAPSIS":"540.873"},{"REV_AT_EPOCH":"1925","RA_OF_ASC_NODE":"62.2165","REF_FRAME":"TEME","COUNTRY_CODE":"US","TLE_LINE2":"2 53718  53.2195  62.2165 0001979  53.4089 306.7085 15.08846851 19250","SITE":"AFETR","CENTER_NAME":"EARTH","GP_ID":"222162636","OBJECT_ID":"2022-107U","PERIAPSIS":"538.355","MEAN_MOTION":"15.08846851","FILE":"3731823","MEAN_MOTION_DDOT":"0.0000000000000","LAUNCH_DATE":"2022-09-05","INCLINATION":"53.2195","EPOCH":"2023-01-04T11:04:22.126944","MEAN_ELEMENT_THEORY":"SGP4","TIME_SYSTEM":"UTC","OBJECT_TYPE":"PAYLOAD","SEMIMAJOR_AXIS":"6917.859","ARG_OF_PERICENTER":"53.4089","ECCENTRICITY":"0.00019790","OBJECT_NAME":"STARLINK-4695","RCS_SIZE":"LARGE","TLE_LINE1":"1 53718U 22107U   23004.46136721  .00001303  00000-0  99922-4 0  9997","APOAPSIS":"541.093","NORAD_CAT_ID":"53718","ELEMENT_SET_NO":"999","CLASSIFICATION_TYPE":"U","DECAY_DATE":null,"PERIOD":"95.437","MEAN_MOTION_DOT":"0.00001303","BSTAR":"0.00009992200000","EPHEMERIS_TYPE":"0","MEAN_ANOMALY":"306.7085"},{"TLE_LINE1":"1 53719U 22107V   23004.34921585 -.00003045  00000-0 -84772-4 0  9999","APOAPSIS":"470.474","RCS_SIZE":"LARGE","ECCENTRICITY":"0.00020980","OBJECT_NAME":"STARLINK-4644","OBJECT_TYPE":"PAYLOAD","SEMIMAJOR_AXIS":"6847.173","ARG_OF_PERICENTER":"52.9198","BSTAR":"-0.00008477200000","EPHEMERIS_TYPE":"0","MEAN_ANOMALY":"307.1995","PERIOD":"93.978","MEAN_MOTION_DOT":"-0.00003045","CLASSIFICATION_TYPE":"U","DECAY_DATE":null,"NORAD_CAT_ID":"53719","ELEMENT_SET_NO":"999","CENTER_NAME":"EARTH","GP_ID":"222161504","TLE_LINE2":"2 53719  53.2175  36.4829 0002098  52.9198 307.1995 15.32271896 19610","SITE":"AFETR","COUNTRY_CODE":"US","REV_AT_EPOCH":"1961","RA_OF_ASC_NODE":"36.4829","REF_FRAME":"TEME","LAUNCH_DATE":"2022-09-05","INCLINATION":"53.2175","EPOCH":"2023-01-04T08:22:52.249440","MEAN_ELEMENT_THEORY":"SGP4","TIME_SYSTEM":"UTC","MEAN_MOTION":"15.32271896","FILE":"3731823","MEAN_MOTION_DDOT":"0.0000000000000","OBJECT_ID":"2022-107V","PERIAPSIS":"467.601"},{"EPHEMERIS_TYPE":"0","BSTAR":"0.00011117000000","MEAN_ANOMALY":"336.8462","PERIOD":"95.437","MEAN_MOTION_DOT":"0.00001482","DECAY_DATE":null,"CLASSIFICATION_TYPE":"U","ELEMENT_SET_NO":"999","NORAD_CAT_ID":"53720","APOAPSIS":"541.613","TLE_LINE1":"1 53720U 22107W   23004.86983929  .00001482  00000-0  11117-3 0  9991","RCS_SIZE":"LARGE","ECCENTRICITY":"0.00027710","OBJECT_NAME":"STARLINK-4642","OBJECT_TYPE":"PAYLOAD","ARG_OF_PERICENTER":"23.2655","SEMIMAJOR_AXIS":"6917.831","INCLINATION":"53.2181","LAUNCH_DATE":"2022-09-05","MEAN_ELEMENT_THEORY":"SGP4","EPOCH":"2023-01-04T20:52:34.114656","TIME_SYSTEM":"UTC","MEAN_MOTION":"15.08856192","FILE":"3732076","MEAN_MOTION_DDOT":"0.0000000000000","OBJECT_ID":"2022-107W","PERIAPSIS":"537.779","GP_ID":"222194471","CENTER_NAME":"EARTH","SITE":"AFETR","TLE_LINE2":"2 53720  53.2181  60.4998 0002771  23.2655 336.8462 15.08856192 18865","COUNTRY_CODE":"US","REF_FRAME":"TEME","RA_OF_ASC_NODE":"60.4998","REV_AT_EPOCH":"1886"},{"COUNTRY_CODE":"US","REF_FRAME":"TEME","REV_AT_EPOCH":"1886","RA_OF_ASC_NODE":"60.5476","GP_ID":"222194723","CENTER_NAME":"EARTH","SITE":"AFETR","TLE_LINE2":"2 53721  53.2191  60.5476 0002328  34.7295 325.3849 15.08860035 18867","MEAN_MOTION_DDOT":"0.0000000000000","FILE":"3732101","MEAN_MOTION":"15.08860035","PERIAPSIS":"538.074","OBJECT_ID":"2022-107X","TIME_SYSTEM":"UTC","LAUNCH_DATE":"2022-09-05","MEAN_ELEMENT_THEORY":"SGP4","INCLINATION":"53.2191","EPOCH":"2023-01-04T21:03:11.216160","OBJECT_NAME":"STARLINK-4707","ECCENTRICITY":"0.00023280","ARG_OF_PERICENTER":"34.7295","SEMIMAJOR_AXIS":"6917.819","OBJECT_TYPE":"PAYLOAD","APOAPSIS":"541.295","TLE_LINE1":"1 53721U 22107X   23004.87721315  .00004612  00000-0  30752-3 0  9996","RCS_SIZE":"LARGE","DECAY_DATE":null,"CLASSIFICATION_TYPE":"U","ELEMENT_SET_NO":"999","NORAD_CAT_ID":"53721","MEAN_ANOMALY":"325.3849","EPHEMERIS_TYPE":"0","BSTAR":"0.00030752000000","MEAN_MOTION_DOT":"0.00004612","PERIOD":"95.436"},{"ARG_OF_PERICENTER":"73.2422","SEMIMAJOR_AXIS":"6917.848","OBJECT_TYPE":"PAYLOAD","ECCENTRICITY":"0.00012410","OBJECT_NAME":"STARLINK-4700","RCS_SIZE":"LARGE","TLE_LINE1":"1 53722U 22107Y   23004.47337561  .00002723  00000-0  18903-3 0  9994","APOAPSIS":"540.572","NORAD_CAT_ID":"53722","ELEMENT_SET_NO":"999","CLASSIFICATION_TYPE":"U","DECAY_DATE":null,"MEAN_MOTION_DOT":"0.00002723","PERIOD":"95.437","MEAN_ANOMALY":"286.8707","BSTAR":"0.00018903000000","EPHEMERIS_TYPE":"0","REV_AT_EPOCH":"1880","RA_OF_ASC_NODE":"62.2973","REF_FRAME":"TEME","COUNTRY_CODE":"US","TLE_LINE2":"2 53722  53.2193  62.2973 0001241  73.2422 286.8707 15.08850507 18805","SITE":"AFETR","CENTER_NAME":"EARTH","GP_ID":"222134964","PERIAPSIS":"538.855","OBJECT_ID":"2022-107Y","MEAN_MOTION_DDOT":"0.0000000000000","FILE":"3731727","MEAN_MOTION":"15.08850507","TIME_SYSTEM":"UTC","LAUNCH_DATE":"2022-09-05","EPOCH":"2023-01-04T11:21:39.652704","INCLINATION":"53.2193","MEAN_ELEMENT_THEORY":"SGP4"},{"RCS_SIZE":"LARGE","APOAPSIS":"541.527","TLE_LINE1":"1 53723U 22107Z   23004.88459185 -.00000077  00000-0  13282-4 0  9994","OBJECT_TYPE":"PAYLOAD","ARG_OF_PERICENTER":"33.4422","SEMIMAJOR_AXIS":"6917.859","ECCENTRICITY":"0.00026060","OBJECT_NAME":"STARLINK-4705","PERIOD":"95.437","MEAN_MOTION_DOT":"-0.00000077","BSTAR":"0.00001328200000","EPHEMERIS_TYPE":"0","MEAN_ANOMALY":"326.6734","ELEMENT_SET_NO":"999","NORAD_CAT_ID":"53723","DECAY_DATE":null,"CLASSIFICATION_TYPE":"U","SITE":"AFETR","TLE_LINE2":"2 53723  53.2185  60.5935 0002606  33.4422 326.6734 15.08846865 18861","GP_ID":"222194579","CENTER_NAME":"EARTH","REF_FRAME":"TEME","REV_AT_EPOCH":"1886","RA_OF_ASC_NODE":"60.5935","COUNTRY_CODE":"US","LAUNCH_DATE":"2022-09-05","INCLINATION":"53.2185","MEAN_ELEMENT_THEORY":"SGP4","EPOCH":"2023-01-04T21:13:48.735840","TIME_SYSTEM":"UTC","OBJECT_ID":"2022-107Z","PERIAPSIS":"537.922","MEAN_MOTION":"15.08846865","FILE":"3732076","MEAN_MOTION_DDOT":"0.0000000000000"}];
